ISS (ZARYA)             
1 25544U 98067A   26186.44376575  .00008907  00000+0  17013-3 0  9992
2 25544  51.6303 209.7275 0006728 258.7638 101.2595 15.48905966574589
OSCAR 7 (AO-7)          
1 07530U 74089B   26186.51709044 -.00000046  00000+0  46007-5 0  9998
2 07530 101.9900 199.9546 0012665  96.2167  58.2844 12.53698433362816
PHASE 3B (AO-10)        
1 14129U 83058B   26186.33528760  .00000218  00000+0  00000+0 0  9997
2 14129  25.9278 216.5709 6004761 120.6537 311.6572  2.05868836295861
LUSAT (LO-19)           
1 20442U 90005G   26186.32180110  .00000161  00000+0  74195-4 0  9992
2 20442  98.8845 208.6266 0012124 148.3759 211.8155 14.34128934904996
EYESAT A (AO-27)        
1 22825U 93061C   26186.18004383  .00000151  00000+0  74236-4 0  9990
2 22825  98.6873 253.5864 0009241  53.0213 307.1814 14.30947410709570
ITAMSAT (IO-26)         
1 22826U 93061D   26186.15408634  .00000155  00000+0  75456-4 0  9994
2 22826  98.6820 253.4798 0009522  37.5027 322.6818 14.31374787709882
RADIO ROSTO (RS15)      
1 23439U 94085A   26186.29724470 -.00000031  00000+0  32444-3 0  9999
2 23439  64.8175 273.9281 0156555   0.5292 359.5771 11.27583527297940
JAS-2 (FO-29)           
1 24278U 96046B   26186.49872094 -.00000023  00000+0  10395-4 0  9991
2 24278  98.5225  32.8610 0350710  49.0522 314.0418 13.53274998475642
TECHSAT 1B (GO-32)      
1 25397U 98043D   26186.46803397  .00000082  00000+0  55820-4 0  9996
2 25397  99.0076 179.6883 0001883 130.3325 229.8018 14.24432096453937
PCSAT (NO-44)           
1 26931U 01043C   26186.45876823  .00000160  00000+0  90679-4 0  9996
2 26931  67.0487 197.0128 0006001 265.8664  94.1752 14.31962526293064
SAUDISAT 1C (SO-50)     
1 27607U 02058C   26186.29437209  .00001271  00000+0  16659-3 0  9996
2 27607  64.5520  72.9616 0074805 259.0885 100.1798 14.83086679267146
CUTE-1 (CO-55)          
1 27844U 03031E   26186.02060449  .00000393  00000+0  18869-3 0  9999
2 27844  98.6737 194.3551 0010529 129.0136 231.1982 14.24347366194217
CUBESAT XI-IV (CO-57)   
1 27848U 03031J   26185.94773638  .00000336  00000+0  16664-3 0  9992
2 27848  98.6769 193.9817 0010103 146.4963 213.6856 14.23630898193909
MOZHAETS 4 (RS22)       
1 27939U 03042A   26186.62008200  .00001158  00000+0  18648-3 0  9994
2 27939  98.3472  11.4996 0010492 204.5697 243.9808 14.73501686218268
CUBESAT XI-V            
1 28895U 05043F   26185.93250537  .00001992  00000+0  32024-3 0  9994
2 28895  98.3005 341.9289 0014817 145.4678 214.7495 14.72684122104364
CUTE-1.7+APD II (CO-65) 
1 32785U 08021C   26186.41140488  .00007633  00000+0  47815-3 0  9995
2 32785  97.8292 168.2116 0007776 339.2260  20.8651 15.09640403987942
SEEDS II (CO-66)        
1 32791U 08021J   26186.41148817  .00028464  00000+0  88139-3 0  9995
2 32791  97.7526 185.1871 0001927 181.2557 178.8680 15.33423851990088
YUBILEINY (RS30)        
1 32953U 08025A   26186.60841715 -.00000127  00000+0 -97996-3 0  9996
2 32953  82.5055 343.9793 0018499 271.2876  88.6084 12.43179642821982
KKS-1 (KISEKI)          
1 33499U 09002H   26186.33727497  .00001821  00000+0  22988-3 0  9997
2 33499  98.1181 109.0670 0006692 224.3140 135.7538 14.83173911938886
SWISSCUBE               
1 35932U 09051B   26186.23066220  .00001420  00000+0  28964-3 0  9999
2 35932  98.4020  94.4325 0007267 146.4671 213.6991 14.62518995891790
BEESAT-1                
1 35933U 09051C   26186.31796617  .00001176  00000+0  24572-3 0  9998
2 35933  98.3947  94.1185 0005492 156.8221 203.3228 14.61752110891835
ITUPSAT1                
1 35935U 09051E   26185.70814032  .00001186  00000+0  25471-3 0  9994
2 35935  98.4031  92.6727 0007316 174.2685 185.8600 14.60469280891292
XIWANG-1 (HOPE-1)       
1 36122U 09072B   26186.63567001 -.00000330  00000+0 -74895-3 0  9996
2 36122 100.4037 140.1741 0007254 186.7220 173.3797 13.16437772795439
O/OREOS (USA 219)       
1 37224U 10062C   26186.54537450  .00003118  00000+0  29896-3 0  9992
2 37224  71.9706  38.7521 0013384  24.3378 335.8422 14.93826313119381
JUGNU                   
1 37839U 11058B   26186.37879829  .00000433  00000+0  86320-4 0  9993
2 37839  19.9587 197.9065 0018343 277.3862 215.8829 14.13781489761603
SRMSAT                  
1 37841U 11058D   26186.61154329  .00000404  00000+0  75655-4 0  9991
2 37841  19.9728 307.9551 0011862  46.8223  73.4725 14.11579637760425
STRAND-1                
1 39090U 13009E   26186.43609853  .00000394  00000+0  14690-3 0  9993
2 39090  98.3930   6.2219 0008827 168.5564 191.5825 14.37175147699684
ZACUBE-1 (TSHEPISOSAT)  
1 39417U 13066B   26186.47037739  .00004580  00000+0  35386-3 0  9997
2 39417  97.8030 148.8991 0043303 186.4218 173.6457 15.01296841683474
GOMX-1                  
1 39430U 13066Q   26186.50257564  .00002582  00000+0  39061-3 0  9990
2 39430  97.6470  25.8087 0129082  19.3075 341.2958 14.69524409672608
