OBJECT_NAME,OBJECT_ID,EPOCH,MEAN_MOTION,ECCENTRICITY,INCLINATION,RA_OF_ASC_NODE,ARG_OF_PERICENTER,MEAN_ANOMALY,EPHEMERIS_TYPE,CLASSIFICATION_TYPE,NORAD_CAT_ID,ELEMENT_SET_NO,REV_AT_EPOCH,BSTAR,MEAN_MOTION_DOT,MEAN_MOTION_DDOT
OSCAR 7 (AO-7),1974-089B,2026-07-05T12:24:36.614016,12.53698433,.0012665,101.9900,199.9546,96.2167,58.2844,0,U,7530,999,36281,.46007E-5,-.46E-6,0
PHASE 3B (AO-10),1983-058B,2026-07-05T08:02:48.848640,2.05868836,.6004761,25.9278,216.5709,120.6537,311.6572,0,U,14129,999,29586,0,.218E-5,0
LUSAT (LO-19),1990-005G,2026-07-05T07:43:23.615040,14.34128934,.0012124,98.8845,208.6266,148.3759,211.8155,0,U,20442,999,90499,.74195E-4,.161E-5,0
EYESAT A (AO-27),1993-061C,2026-07-05T04:19:15.786912,14.30947410,.0009241,98.6873,253.5864,53.0213,307.1814,0,U,22825,999,70957,.74236E-4,.151E-5,0
ITAMSAT (IO-26),1993-061D,2026-07-05T03:41:53.059776,14.31374787,.0009522,98.6820,253.4798,37.5027,322.6818,0,U,22826,999,70988,.75456E-4,.155E-5,0
RADIO ROSTO (RS15),1994-085A,2026-07-05T07:08:01.942080,11.27583527,.01565547,64.8175,273.9281,0.5292,359.5771,0,U,23439,999,29794,.32444343E-3,-.31E-6,0
JAS-2 (FO-29),1996-046B,2026-07-05T11:58:09.489216,13.53274998,.03507105,98.5225,32.8610,49.0522,314.0418,0,U,24278,999,47564,.10395126E-4,-.23E-6,0
TECHSAT 1B (GO-32),1998-043D,2026-07-05T11:13:58.135008,14.24432096,.00018827,99.0076,179.6883,130.3325,229.8018,0,U,25397,999,45393,.55820262E-4,.82E-6,0
ISS (ZARYA),1998-067A,2026-07-05T10:39:01.361664,15.48905966,.00067279,51.6303,209.7275,258.7638,101.2595,0,U,25544,999,57458,.17012518E-3,.8907E-4,0
PCSAT (NO-44),2001-043C,2026-07-05T11:00:37.575936,14.31962526,.00060015,67.0487,197.0128,265.8664,94.1752,0,U,26931,999,29306,.90678968E-4,.16E-5,0
SAUDISAT 1C (SO-50),2002-058C,2026-07-05T07:03:53.749440,14.83086679,.00748049,64.5520,72.9616,259.0885,100.1798,0,U,27607,999,26714,.16659148E-3,.1271E-4,0
CUTE-1 (CO-55),2003-031E,2026-07-05T00:29:40.227936,14.24347366,.0010529,98.6737,194.3551,129.0136,231.1982,0,U,27844,999,19421,.18869E-3,.393E-5,0
CUBESAT XI-IV (CO-57),2003-031J,2026-07-04T22:44:44.423232,14.23630898,.0010103,98.6769,193.9817,146.4963,213.6856,0,U,27848,999,19390,.16664E-3,.336E-5,0
MOZHAETS 4 (RS22),2003-042A,2026-07-05T14:52:55.084800,14.73501686,.00104926,98.3472,11.4996,204.5697,243.9808,0,U,27939,999,21826,.18648425E-3,.1158E-4,0
CUBESAT XI-V,2005-043F,2026-07-04T22:22:48.464832,14.72684122,.00148173,98.3005,341.9289,145.4678,214.7495,0,U,28895,999,10436,.32024201E-3,.1992E-4,0
CUTE-1.7+APD II (CO-65),2008-021C,2026-07-05T09:52:25.381632,15.09640403,.0007776,97.8292,168.2116,339.2260,20.8651,0,U,32785,999,98794,.47815E-3,.7633E-4,0
SEEDS II (CO-66),2008-021J,2026-07-05T09:52:32.577888,15.33423851,.0001927,97.7526,185.1871,181.2557,178.8680,0,U,32791,999,99008,.88139E-3,.28464E-3,0
YUBILEINY (RS30),2008-025A,2026-07-05T14:36:07.241760,12.43179642,.00184996,82.5055,343.9793,271.2876,88.6084,0,U,32953,999,82198,-.97996345E-3,-.127E-5,0
KKS-1 (KISEKI),2009-002H,2026-07-05T08:05:40.557408,14.83173911,.0006692,98.1181,109.0670,224.3140,135.7538,0,U,33499,999,93888,.22988E-3,.1821E-4,0
SWISSCUBE,2009-051B,2026-07-05T05:32:09.214080,14.62518995,.0007267,98.4020,94.4325,146.4671,213.6991,0,U,35932,999,89179,.28964E-3,.142E-4,0
BEESAT-1,2009-051C,2026-07-05T07:37:52.277088,14.61752110,.0005492,98.3947,94.1185,156.8221,203.3228,0,U,35933,999,89183,.24572E-3,.1176E-4,0
ITUPSAT1,2009-051E,2026-07-04T16:59:43.323648,14.60469280,.00073167,98.4031,92.6727,174.2685,185.8600,0,U,35935,999,89129,.2547061E-3,.1186E-4,0
XIWANG-1 (HOPE-1),2009-072B,2026-07-05T15:15:21.888864,13.16437772,.00072541,100.4037,140.1741,186.7220,173.3797,0,U,36122,999,79543,-.74895242E-3,-.33E-5,0
O/OREOS (USA 219),2010-062C,2026-07-05T13:05:20.356800,14.93826313,.0013384,71.9706,38.7521,24.3378,335.8422,0,U,37224,999,11938,.29896E-3,.3118E-4,0
JUGNU,2011-058B,2026-07-05T09:05:28.172256,14.13781489,.0018343,19.9587,197.9065,277.3862,215.8829,0,U,37839,999,76160,.8632E-4,.433E-5,0
SRMSAT,2011-058D,2026-07-05T14:40:37.340256,14.11579637,.00118628,19.9728,307.9551,46.8223,73.4725,0,U,37841,999,76042,.75654927E-4,.404E-5,0
STRAND-1,2013-009E,2026-07-05T10:27:58.912992,14.37175147,.0008827,98.3930,6.2219,168.5564,191.5825,0,U,39090,999,69968,.1469E-3,.394E-5,0
ZACUBE-1 (TSHEPISOSAT),2013-066B,2026-07-05T11:17:20.606496,15.01296841,.00433036,97.8030,148.8991,186.4218,173.6457,0,U,39417,999,68347,.353858E-3,.458E-4,0
GOMX-1,2013-066Q,2026-07-05T12:03:42.535296,14.69524409,.0129082,97.6470,25.8087,19.3075,341.2958,0,U,39430,999,67260,.39061E-3,.2582E-4,0
